[{"OBJECT_NAME":"METOP-B","OBJECT_ID":"2012-049A","EPOCH":"2026-03-09T20:49:00.301440","MEAN_MOTION":14.2144474,"ECCENTRICITY":0.0001197,"INCLINATION":98.6642,"RA_OF_ASC_NODE":122.2903,"ARG_OF_PERICENTER":264.5889,"MEAN_ANOMALY":95.5152,"EPHEMERIS_TYPE":0,"CLASSIFICATION_TYPE":"U","NORAD_CAT_ID":38771,"ELEMENT_SET_NO":999,"REV_AT_EPOCH":69915,"BSTAR":8.3719118e-5,"MEAN_MOTION_DOT":1.4e-6,"MEAN_MOTION_DDOT":0},{"OBJECT_NAME":"DELTA 1 DEB","OBJECT_ID":"1978-026JP","EPOCH":"2026-03-03T02:41:33.533952","MEAN_MOTION":14.21251909,"ECCENTRICITY":0.00281194,"INCLINATION":98.8294,"RA_OF_ASC_NODE":21.3543,"ARG_OF_PERICENTER":12.3767,"MEAN_ANOMALY":347.8095,"EPHEMERIS_TYPE":0,"CLASSIFICATION_TYPE":"U","NORAD_CAT_ID":37652,"ELEMENT_SET_NO":999,"REV_AT_EPOCH":12699,"BSTAR":0.0006429346,"MEAN_MOTION_DOT":1.361e-5,"MEAN_MOTION_DDOT":0}]
